start=new Date('2021-10-31T00:00:00.000Z').valueOf();
sats=[{"SEMIMAJOR_AXIS":"6925.349","LAUNCH_DATE":"2021-03-11","EPHEMERIS_TYPE":"0","OBJECT_ID":"2021-018AV","MEAN_MOTION_DDOT":"0.0000000000000","DECAY_DATE":null,"ECCENTRICITY":"0.00017760","OBJECT_TYPE":"PAYLOAD","ARG_OF_PERICENTER":"77.6111","FILE":"3192905","RA_OF_ASC_NODE":"206.3611","TIME_SYSTEM":"UTC","TLE_LINE1":"1 47830U 21018AV  21303.14076931  .00000457  00000-0  49595-4 0  9996","CENTER_NAME":"EARTH","RCS_SIZE":"LARGE","NORAD_CAT_ID":"47830","MEAN_ELEMENT_THEORY":"SGP4","CLASSIFICATION_TYPE":"U","OBJECT_NAME":"STARLINK-2419","BSTAR":"0.00004959500000","PERIOD":"95.592","ELEMENT_SET_NO":"999","PERIAPSIS":"545.985","MEAN_MOTION_DOT":"0.00000457","EPOCH":"2021-10-30T03:22:42.468384","INCLINATION":"53.0565","APOAPSIS":"548.444","COUNTRY_CODE":"US","GP_ID":"188516178","SITE":"AFETR","REF_FRAME":"TEME","MEAN_ANOMALY":"282.5076","MEAN_MOTION":"15.06399710","REV_AT_EPOCH":"3656","TLE_LINE2":"2 47830  53.0565 206.3611 0001776  77.6111 282.5076 15.06399710 36562"},{"LAUNCH_DATE":"2021-03-11","SEMIMAJOR_AXIS":"6925.333","EPHEMERIS_TYPE":"0","OBJECT_ID":"2021-018AW","MEAN_MOTION_DDOT":"0.0000000000000","DECAY_DATE":null,"OBJECT_TYPE":"PAYLOAD","ECCENTRICITY":"0.00017470","ARG_OF_PERICENTER":"74.7507","FILE":"3192905","TLE_LINE1":"1 47831U 21018AW  21303.54574625  .00003101  00000-0  22697-3 0  9996","RA_OF_ASC_NODE":"179.5333","TIME_SYSTEM":"UTC","RCS_SIZE":"LARGE","CENTER_NAME":"EARTH","NORAD_CAT_ID":"47831","MEAN_ELEMENT_THEORY":"SGP4","CLASSIFICATION_TYPE":"U","OBJECT_NAME":"STARLINK-2420","BSTAR":"0.00022697000000","MEAN_MOTION_DOT":"0.00003101","PERIAPSIS":"545.988","ELEMENT_SET_NO":"999","PERIOD":"95.592","INCLINATION":"53.0528","EPOCH":"2021-10-30T13:05:52.476000","APOAPSIS":"548.408","GP_ID":"188516427","COUNTRY_CODE":"US","REF_FRAME":"TEME","SITE":"AFETR","MEAN_ANOMALY":"285.3675","MEAN_MOTION":"15.06404977","REV_AT_EPOCH":"3703","TLE_LINE2":"2 47831  53.0528 179.5333 0001747  74.7507 285.3675 15.06404977 37030"},{"BSTAR":"0.00008492500000","OBJECT_NAME":"STARLINK-2422","CLASSIFICATION_TYPE":"U","EPOCH":"2021-10-30T10:18:03.169440","INCLINATION":"53.0554","PERIOD":"95.593","ELEMENT_SET_NO":"999","MEAN_MOTION_DOT":"0.00000983","PERIAPSIS":"546.162","COUNTRY_CODE":"US","GP_ID":"188515177","APOAPSIS":"548.320","TLE_LINE2":"2 47832  53.0554 195.0646 0001558  71.4147 288.7011 15.06391005 36750","REV_AT_EPOCH":"3675","MEAN_MOTION":"15.06391005","MEAN_ANOMALY":"288.7011","SITE":"AFETR","REF_FRAME":"TEME","MEAN_MOTION_DDOT":"0.0000000000000","OBJECT_ID":"2021-018AX","EPHEMERIS_TYPE":"0","LAUNCH_DATE":"2021-03-11","SEMIMAJOR_AXIS":"6925.376","ECCENTRICITY":"0.00015580","OBJECT_TYPE":"PAYLOAD","DECAY_DATE":null,"TIME_SYSTEM":"UTC","RA_OF_ASC_NODE":"195.0646","TLE_LINE1":"1 47832U 21018AX  21303.42920335  .00000983  00000-0  84925-4 0  9995","ARG_OF_PERICENTER":"71.4147","FILE":"3192905","MEAN_ELEMENT_THEORY":"SGP4","NORAD_CAT_ID":"47832","CENTER_NAME":"EARTH","RCS_SIZE":"LARGE"},{"SEMIMAJOR_AXIS":"6925.359","LAUNCH_DATE":"2021-03-11","EPHEMERIS_TYPE":"0","OBJECT_ID":"2021-018AY","MEAN_MOTION_DDOT":"0.0000000000000","DECAY_DATE":null,"OBJECT_TYPE":"PAYLOAD","ECCENTRICITY":"0.00019910","ARG_OF_PERICENTER":"70.7458","FILE":"3192905","TLE_LINE1":"1 47833U 21018AY  21303.12327010  .00001419  00000-0  11419-3 0  9996","RA_OF_ASC_NODE":"196.4369","TIME_SYSTEM":"UTC","RCS_SIZE":"LARGE","CENTER_NAME":"EARTH","MEAN_ELEMENT_THEORY":"SGP4","NORAD_CAT_ID":"47833","CLASSIFICATION_TYPE":"U","OBJECT_NAME":"STARLINK-2423","BSTAR":"0.00011419000000","MEAN_MOTION_DOT":"0.00001419","PERIAPSIS":"545.845","ELEMENT_SET_NO":"999","PERIOD":"95.592","EPOCH":"2021-10-30T02:57:30.536640","INCLINATION":"53.0555","APOAPSIS":"548.603","GP_ID":"188515427","COUNTRY_CODE":"US","REF_FRAME":"TEME","SITE":"AFETR","MEAN_ANOMALY":"289.3746","MEAN_MOTION":"15.06396681","TLE_LINE2":"2 47833  53.0555 196.4369 0001991  70.7458 289.3746 15.06396681 36765","REV_AT_EPOCH":"3676"},{"PERIAPSIS":"545.962","MEAN_MOTION_DOT":"-0.00000589","ELEMENT_SET_NO":"999","PERIOD":"95.592","INCLINATION":"53.0553","EPOCH":"2021-10-30T09:35:35.063232","OBJECT_NAME":"STARLINK-2424","BSTAR":"-0.00002060900000","CLASSIFICATION_TYPE":"U","MEAN_MOTION":"15.06397196","TLE_LINE2":"2 47834  53.0553 195.1938 0001819  77.0358 283.0834 15.06397196 36806","REV_AT_EPOCH":"3680","REF_FRAME":"TEME","SITE":"AFETR","MEAN_ANOMALY":"283.0834","APOAPSIS":"548.482","GP_ID":"188515679","COUNTRY_CODE":"US","OBJECT_TYPE":"PAYLOAD","ECCENTRICITY":"0.00018190","DECAY_DATE":null,"OBJECT_ID":"2021-018AZ","MEAN_MOTION_DDOT":"0.0000000000000","SEMIMAJOR_AXIS":"6925.357","LAUNCH_DATE":"2021-03-11","EPHEMERIS_TYPE":"0","RCS_SIZE":"LARGE","CENTER_NAME":"EARTH","MEAN_ELEMENT_THEORY":"SGP4","NORAD_CAT_ID":"47834","FILE":"3192905","ARG_OF_PERICENTER":"77.0358","TLE_LINE1":"1 47834U 21018AZ  21303.39971138 -.00000589  00000-0 -20609-4 0  9993","RA_OF_ASC_NODE":"195.1938","TIME_SYSTEM":"UTC"},{"APOAPSIS":"548.549","GP_ID":"188515928","COUNTRY_CODE":"US","REF_FRAME":"TEME","SITE":"AFETR","MEAN_ANOMALY":"291.0718","MEAN_MOTION":"15.06407415","TLE_LINE2":"2 47835  53.0533 200.1532 0001961  69.0481 291.0718 15.06407415 36679","REV_AT_EPOCH":"3667","CLASSIFICATION_TYPE":"U","OBJECT_NAME":"STARLINK-2425","BSTAR":"0.00035106000000","PERIAPSIS":"545.833","MEAN_MOTION_DOT":"0.00004952","PERIOD":"95.592","ELEMENT_SET_NO":"999","EPOCH":"2021-10-30T09:57:26.639424","INCLINATION":"53.0533","ARG_OF_PERICENTER":"69.0481","FILE":"3192905","TLE_LINE1":"1 47835U 21018BA  21303.41489166  .00004952  00000-0  35106-3 0  9995","TIME_SYSTEM":"UTC","RA_OF_ASC_NODE":"200.1532","RCS_SIZE":"LARGE","CENTER_NAME":"EARTH","NORAD_CAT_ID":"47835","MEAN_ELEMENT_THEORY":"SGP4","SEMIMAJOR_AXIS":"6925.326","LAUNCH_DATE":"2021-03-11","EPHEMERIS_TYPE":"0","OBJECT_ID":"2021-018BA","MEAN_MOTION_DDOT":"0.0000000000000","DECAY_DATE":null,"OBJECT_TYPE":"PAYLOAD","ECCENTRICITY":"0.00019610"},{"OBJECT_NAME":"STARLINK-2426","BSTAR":"0.00012205000000","CLASSIFICATION_TYPE":"U","ELEMENT_SET_NO":"999","PERIOD":"95.592","PERIAPSIS":"546.007","MEAN_MOTION_DOT":"0.00001537","EPOCH":"2021-10-30T19:23:22.807104","INCLINATION":"53.0542","APOAPSIS":"548.424","COUNTRY_CODE":"US","GP_ID":"188522257","MEAN_MOTION":"15.06399262","REV_AT_EPOCH":"3647","TLE_LINE2":"2 47836  53.0542 193.3488 0001745  65.1924 294.9247 15.06399262 36479","SITE":"AFETR","REF_FRAME":"TEME","MEAN_ANOMALY":"294.9247","OBJECT_ID":"2021-018BB","MEAN_MOTION_DDOT":"0.0000000000000","SEMIMAJOR_AXIS":"6925.351","LAUNCH_DATE":"2021-03-11","EPHEMERIS_TYPE":"0","ECCENTRICITY":"0.00017450","OBJECT_TYPE":"PAYLOAD","DECAY_DATE":null,"ARG_OF_PERICENTER":"65.1924","FILE":"3193133","RA_OF_ASC_NODE":"193.3488","TIME_SYSTEM":"UTC","TLE_LINE1":"1 47836U 21018BB  21303.80790286  .00001537  00000-0  12205-3 0  9998","CENTER_NAME":"EARTH","RCS_SIZE":"LARGE","NORAD_CAT_ID":"47836","MEAN_ELEMENT_THEORY":"SGP4"},{"PERIOD":"95.592","ELEMENT_SET_NO":"999","MEAN_MOTION_DOT":"0.00000826","PERIAPSIS":"546.086","EPOCH":"2021-10-30T18:13:05.892672","INCLINATION":"53.0567","CLASSIFICATION_TYPE":"U","OBJECT_NAME":"STARLINK-2427","BSTAR":"0.00007438000000","SITE":"AFETR","REF_FRAME":"TEME","MEAN_ANOMALY":"277.3361","MEAN_MOTION":"15.06395385","REV_AT_EPOCH":"3675","TLE_LINE2":"2 47837  53.0567 173.5840 0001648  82.7815 277.3361 15.06395385 36750","APOAPSIS":"548.369","COUNTRY_CODE":"US","GP_ID":"188522759","DECAY_DATE":null,"ECCENTRICITY":"0.00016480","OBJECT_TYPE":"PAYLOAD","LAUNCH_DATE":"2021-03-11","SEMIMAJOR_AXIS":"6925.363","EPHEMERIS_TYPE":"0","OBJECT_ID":"2021-018BC","MEAN_MOTION_DDOT":"0.0000000000000","CENTER_NAME":"EARTH","RCS_SIZE":"LARGE","MEAN_ELEMENT_THEORY":"SGP4","NORAD_CAT_ID":"47837","ARG_OF_PERICENTER":"82.7815","FILE":"3193133","RA_OF_ASC_NODE":"173.5840","TIME_SYSTEM":"UTC","TLE_LINE1":"1 47837U 21018BC  21303.75909598  .00000826  00000-0  74380-4 0  9994"},{"OBJECT_TYPE":"PAYLOAD","ECCENTRICITY":"0.00018190","DECAY_DATE":null,"OBJECT_ID":"2021-018BD","MEAN_MOTION_DDOT":"0.0000000000000","SEMIMAJOR_AXIS":"6925.335","LAUNCH_DATE":"2021-03-11","EPHEMERIS_TYPE":"0","RCS_SIZE":"LARGE","CENTER_NAME":"EARTH","NORAD_CAT_ID":"47838","MEAN_ELEMENT_THEORY":"SGP4","FILE":"3192905","ARG_OF_PERICENTER":"75.9147","TLE_LINE1":"1 47838U 21018BD  21303.44024957  .00001829  00000-0  14165-3 0  9996","TIME_SYSTEM":"UTC","RA_OF_ASC_NODE":"195.0195","PERIAPSIS":"545.941","MEAN_MOTION_DOT":"0.00001829","PERIOD":"95.592","ELEMENT_SET_NO":"999","EPOCH":"2021-10-30T10:33:57.562848","INCLINATION":"53.0542","OBJECT_NAME":"STARLINK-2429","BSTAR":"0.00014165000000","CLASSIFICATION_TYPE":"U","MEAN_MOTION":"15.06404289","REV_AT_EPOCH":"3675","TLE_LINE2":"2 47838  53.0542 195.0195 0001819  75.9147 284.2044 15.06404289 36757","REF_FRAME":"TEME","SITE":"AFETR","MEAN_ANOMALY":"284.2044","APOAPSIS":"548.460","GP_ID":"188516179","COUNTRY_CODE":"US"},{"CENTER_NAME":"EARTH","RCS_SIZE":"LARGE","NORAD_CAT_ID":"47839","MEAN_ELEMENT_THEORY":"SGP4","ARG_OF_PERICENTER":"52.7119","FILE":"3192905","RA_OF_ASC_NODE":"166.8981","TIME_SYSTEM":"UTC","TLE_LINE1":"1 47839U 21018BE  21303.32376923  .00004432  00000-0  17339-3 0  9996","ECCENTRICITY":"0.00017220","OBJECT_TYPE":"PAYLOAD","DECAY_DATE":null,"OBJECT_ID":"2021-018BE","MEAN_MOTION_DDOT":"0.0000000000000","LAUNCH_DATE":"2021-03-11","SEMIMAJOR_AXIS":"6860.332","EPHEMERIS_TYPE":"0","MEAN_MOTION":"15.27865376","REV_AT_EPOCH":"3715","TLE_LINE2":"2 47839  53.0528 166.8981 0001722  52.7119 307.4036 15.27865376 37151","SITE":"AFETR","REF_FRAME":"TEME","MEAN_ANOMALY":"307.4036","APOAPSIS":"483.378","COUNTRY_CODE":"US","GP_ID":"188516428","ELEMENT_SET_NO":"999","PERIOD":"94.249","PERIAPSIS":"481.015","MEAN_MOTION_DOT":"0.00004432","INCLINATION":"53.0528","EPOCH":"2021-10-30T07:46:13.661472","OBJECT_NAME":"STARLINK-2431","BSTAR":"0.00017339000000","CLASSIFICATION_TYPE":"U"}];
